start=new Date('2023-05-23T00:00:00.000Z').valueOf();
sats=[{"MEAN_ELEMENT_THEORY":"SGP4","MEAN_MOTION_DOT":"-0.00000456","COUNTRY_CODE":"US","OBJECT_TYPE":"PAYLOAD","CLASSIFICATION_TYPE":"U","REF_FRAME":"TEME","EPHEMERIS_TYPE":"0","SEMIMAJOR_AXIS":"6917.881","PERIOD":"95.438","RA_OF_ASC_NODE":"242.7857","OBJECT_ID":"2022-136AJ","CENTER_NAME":"EARTH","PERIAPSIS":"539.107","MEAN_MOTION":"15.08839877","ECCENTRICITY":"0.00009240","GP_ID":"232327020","RCS_SIZE":"LARGE","MEAN_ANOMALY":"277.9816","OBJECT_NAME":"STARLINK-5178","MEAN_MOTION_DDOT":"0.0000000000000","ARG_OF_PERICENTER":"82.1281","SITE":"AFETR","APOAPSIS":"540.385","DECAY_DATE":null,"LAUNCH_DATE":"2022-10-20","ELEMENT_SET_NO":"999","TLE_LINE2":"2 54083  53.2163 242.7857 0000924  82.1281 277.9816 15.08839877 32678","TLE_LINE1":"1 54083U 22136AJ  23142.54252933 -.00000456  00000-0 -10545-4 0  9995","NORAD_CAT_ID":"54083","INCLINATION":"53.2163","TIME_SYSTEM":"UTC","BSTAR":"-0.00001054500000","EPOCH":"2023-05-22T13:01:14.534112","REV_AT_EPOCH":"3267","FILE":"3914693"},{"FILE":"3914693","REV_AT_EPOCH":"3267","EPOCH":"2023-05-22T13:07:55.532928","TIME_SYSTEM":"UTC","BSTAR":"0.00010859000000","NORAD_CAT_ID":"54084","INCLINATION":"53.2155","TLE_LINE1":"1 54084U 22136AK  23142.54717052  .00001441  00000-0  10859-3 0  9994","TLE_LINE2":"2 54084  53.2155 242.8134 0001023  92.7584 267.3525 15.08842495 32673","ELEMENT_SET_NO":"999","LAUNCH_DATE":"2022-10-20","APOAPSIS":"540.445","DECAY_DATE":null,"SITE":"AFETR","ARG_OF_PERICENTER":"92.7584","MEAN_ANOMALY":"267.3525","RCS_SIZE":"LARGE","MEAN_MOTION_DDOT":"0.0000000000000","OBJECT_NAME":"STARLINK-5183","GP_ID":"232328271","ECCENTRICITY":"0.00010230","PERIAPSIS":"539.030","MEAN_MOTION":"15.08842495","CENTER_NAME":"EARTH","RA_OF_ASC_NODE":"242.8134","OBJECT_ID":"2022-136AK","PERIOD":"95.437","SEMIMAJOR_AXIS":"6917.873","EPHEMERIS_TYPE":"0","REF_FRAME":"TEME","COUNTRY_CODE":"US","MEAN_MOTION_DOT":"0.00001441","CLASSIFICATION_TYPE":"U","OBJECT_TYPE":"PAYLOAD","MEAN_ELEMENT_THEORY":"SGP4"},{"OBJECT_TYPE":"PAYLOAD","CLASSIFICATION_TYPE":"U","COUNTRY_CODE":"US","MEAN_MOTION_DOT":"0.00024906","MEAN_ELEMENT_THEORY":"SGP4","REF_FRAME":"TEME","SEMIMAJOR_AXIS":"6917.835","EPHEMERIS_TYPE":"0","RA_OF_ASC_NODE":"242.7637","OBJECT_ID":"2022-136AL","PERIOD":"95.437","MEAN_MOTION":"15.08854972","PERIAPSIS":"538.909","CENTER_NAME":"EARTH","ECCENTRICITY":"0.00011430","OBJECT_NAME":"STARLINK-5166","MEAN_MOTION_DDOT":"0.0000000000000","RCS_SIZE":"LARGE","MEAN_ANOMALY":"306.3164","GP_ID":"232328014","SITE":"AFETR","ARG_OF_PERICENTER":"53.7934","DECAY_DATE":null,"APOAPSIS":"540.490","ELEMENT_SET_NO":"999","LAUNCH_DATE":"2022-10-20","INCLINATION":"53.2150","NORAD_CAT_ID":"54085","TLE_LINE2":"2 54085  53.2150 242.7637 0001143  53.7934 306.3164 15.08854972 32671","TLE_LINE1":"1 54085U 22136AL  23142.53884627  .00024906  00000-0  15768-2 0  9991","BSTAR":"0.00157680000000","TIME_SYSTEM":"UTC","EPOCH":"2023-05-22T12:55:56.317728","FILE":"3914693","REV_AT_EPOCH":"3267"},{"GP_ID":"232326772","RCS_SIZE":"LARGE","MEAN_ANOMALY":"255.8779","OBJECT_NAME":"STARLINK-5211","MEAN_MOTION_DDOT":"0.0000000000000","ARG_OF_PERICENTER":"104.2283","SITE":"AFETR","CENTER_NAME":"EARTH","PERIAPSIS":"539.329","MEAN_MOTION":"15.08835134","ECCENTRICITY":"0.00006230","EPHEMERIS_TYPE":"0","SEMIMAJOR_AXIS":"6917.895","PERIOD":"95.438","RA_OF_ASC_NODE":"227.8258","OBJECT_ID":"2022-136AM","MEAN_ELEMENT_THEORY":"SGP4","MEAN_MOTION_DOT":"-0.00001231","COUNTRY_CODE":"US","OBJECT_TYPE":"PAYLOAD","CLASSIFICATION_TYPE":"U","REF_FRAME":"TEME","EPOCH":"2023-05-22T13:00:35.336160","REV_AT_EPOCH":"3288","FILE":"3914693","TIME_SYSTEM":"UTC","BSTAR":"-0.00005927900000","TLE_LINE1":"1 54086U 22136AM  23142.54207565 -.00001231  00000-0 -59279-4 0  9998","TLE_LINE2":"2 54086  53.2154 227.8258 0000623 104.2283 255.8779 15.08835134 32882","NORAD_CAT_ID":"54086","INCLINATION":"53.2154","APOAPSIS":"540.191","DECAY_DATE":null,"LAUNCH_DATE":"2022-10-20","ELEMENT_SET_NO":"999"},{"MEAN_MOTION":"15.08852810","PERIAPSIS":"539.010","CENTER_NAME":"EARTH","ECCENTRICITY":"0.00010070","OBJECT_NAME":"STARLINK-5184","MEAN_MOTION_DDOT":"0.0000000000000","RCS_SIZE":"LARGE","MEAN_ANOMALY":"258.1925","GP_ID":"232360786","SITE":"AFETR","ARG_OF_PERICENTER":"101.9180","CLASSIFICATION_TYPE":"U","OBJECT_TYPE":"PAYLOAD","COUNTRY_CODE":"US","MEAN_MOTION_DOT":"0.00003850","MEAN_ELEMENT_THEORY":"SGP4","REF_FRAME":"TEME","SEMIMAJOR_AXIS":"6917.841","EPHEMERIS_TYPE":"0","OBJECT_ID":"2022-136AN","RA_OF_ASC_NODE":"242.4415","PERIOD":"95.437","BSTAR":"0.00025974000000","TIME_SYSTEM":"UTC","EPOCH":"2023-05-22T14:26:00.813984","FILE":"3914964","REV_AT_EPOCH":"3268","DECAY_DATE":null,"APOAPSIS":"540.403","ELEMENT_SET_NO":"999","LAUNCH_DATE":"2022-10-20","INCLINATION":"53.2165","NORAD_CAT_ID":"54087","TLE_LINE1":"1 54087U 22136AN  23142.60139831  .00003850  00000-0  25974-3 0  9997","TLE_LINE2":"2 54087  53.2165 242.4415 0001007 101.9180 258.1925 15.08852810 32687"},{"SEMIMAJOR_AXIS":"6917.869","EPHEMERIS_TYPE":"0","OBJECT_ID":"2022-136AP","RA_OF_ASC_NODE":"242.8095","PERIOD":"95.437","MEAN_MOTION_DOT":"0.00001669","COUNTRY_CODE":"US","OBJECT_TYPE":"PAYLOAD","CLASSIFICATION_TYPE":"U","MEAN_ELEMENT_THEORY":"SGP4","REF_FRAME":"TEME","RCS_SIZE":"LARGE","MEAN_ANOMALY":"268.4073","MEAN_MOTION_DDOT":"0.0000000000000","OBJECT_NAME":"STARLINK-5153","GP_ID":"232327771","SITE":"AFETR","ARG_OF_PERICENTER":"91.7028","PERIAPSIS":"539.074","MEAN_MOTION":"15.08843785","CENTER_NAME":"EARTH","ECCENTRICITY":"0.00009540","NORAD_CAT_ID":"54088","INCLINATION":"53.2147","TLE_LINE1":"1 54088U 22136AP  23142.54621121  .00001669  00000-0  12288-3 0  9999","TLE_LINE2":"2 54088  53.2147 242.8095 0000954  91.7028 268.4073 15.08843785 32671","APOAPSIS":"540.394","DECAY_DATE":null,"ELEMENT_SET_NO":"999","LAUNCH_DATE":"2022-10-20","EPOCH":"2023-05-22T13:06:32.648544","FILE":"3914693","REV_AT_EPOCH":"3267","TIME_SYSTEM":"UTC","BSTAR":"0.00012288000000"},{"BSTAR":"-0.00000854090000","TIME_SYSTEM":"UTC","EPOCH":"2023-05-22T15:45:28.845504","REV_AT_EPOCH":"3269","FILE":"3914964","DECAY_DATE":null,"APOAPSIS":"540.461","LAUNCH_DATE":"2022-10-20","ELEMENT_SET_NO":"999","TLE_LINE2":"2 54089  53.2174 242.0737 0001051  94.5706 265.5406 15.08843821 32691","TLE_LINE1":"1 54089U 22136AQ  23142.65658386 -.00000424  00000-0 -85409-5 0  9992","INCLINATION":"53.2174","NORAD_CAT_ID":"54089","CENTER_NAME":"EARTH","MEAN_MOTION":"15.08843821","PERIAPSIS":"539.007","ECCENTRICITY":"0.00010510","GP_ID":"232361287","OBJECT_NAME":"STARLINK-5143","MEAN_MOTION_DDOT":"0.0000000000000","MEAN_ANOMALY":"265.5406","RCS_SIZE":"LARGE","ARG_OF_PERICENTER":"94.5706","SITE":"AFETR","MEAN_ELEMENT_THEORY":"SGP4","OBJECT_TYPE":"PAYLOAD","CLASSIFICATION_TYPE":"U","MEAN_MOTION_DOT":"-0.00000424","COUNTRY_CODE":"US","REF_FRAME":"TEME","EPHEMERIS_TYPE":"0","SEMIMAJOR_AXIS":"6917.869","PERIOD":"95.437","OBJECT_ID":"2022-136AQ","RA_OF_ASC_NODE":"242.0737"},{"ELEMENT_SET_NO":"999","LAUNCH_DATE":"2022-10-20","APOAPSIS":"540.593","DECAY_DATE":null,"NORAD_CAT_ID":"54090","INCLINATION":"53.2170","TLE_LINE1":"1 54090U 22136AR  23142.59403220 -.00000013  00000-0  17241-4 0  9993","TLE_LINE2":"2 54090  53.2170 242.3957 0001211  88.4216 271.6915 15.08836613 32685","TIME_SYSTEM":"UTC","BSTAR":"0.00001724100000","FILE":"3914964","REV_AT_EPOCH":"3268","EPOCH":"2023-05-22T14:15:24.382080","REF_FRAME":"TEME","COUNTRY_CODE":"US","MEAN_MOTION_DOT":"-0.00000013","CLASSIFICATION_TYPE":"U","OBJECT_TYPE":"PAYLOAD","MEAN_ELEMENT_THEORY":"SGP4","RA_OF_ASC_NODE":"242.3957","OBJECT_ID":"2022-136AR","PERIOD":"95.438","SEMIMAJOR_AXIS":"6917.891","EPHEMERIS_TYPE":"0","ECCENTRICITY":"0.00012110","PERIAPSIS":"538.918","MEAN_MOTION":"15.08836613","CENTER_NAME":"EARTH","SITE":"AFETR","ARG_OF_PERICENTER":"88.4216","MEAN_ANOMALY":"271.6915","RCS_SIZE":"LARGE","MEAN_MOTION_DDOT":"0.0000000000000","OBJECT_NAME":"STARLINK-5177","GP_ID":"232360271"},{"REF_FRAME":"TEME","COUNTRY_CODE":"US","MEAN_MOTION_DOT":"-0.00001694","OBJECT_TYPE":"PAYLOAD","CLASSIFICATION_TYPE":"U","MEAN_ELEMENT_THEORY":"SGP4","OBJECT_ID":"2022-136AS","RA_OF_ASC_NODE":"242.3079","PERIOD":"95.437","SEMIMAJOR_AXIS":"6917.874","EPHEMERIS_TYPE":"0","ECCENTRICITY":"0.00009990","PERIAPSIS":"539.048","MEAN_MOTION":"15.08842081","CENTER_NAME":"EARTH","SITE":"AFETR","ARG_OF_PERICENTER":"91.3605","RCS_SIZE":"LARGE","MEAN_ANOMALY":"268.7501","MEAN_MOTION_DDOT":"0.0000000000000","OBJECT_NAME":"STARLINK-5221","GP_ID":"232327021","ELEMENT_SET_NO":"999","LAUNCH_DATE":"2022-10-20","APOAPSIS":"540.430","DECAY_DATE":null,"NORAD_CAT_ID":"54091","INCLINATION":"53.2160","TLE_LINE2":"2 54091  53.2160 242.3079 0000999  91.3605 268.7501 15.08842081 32681","TLE_LINE1":"1 54091U 22136AS  23142.58025017 -.00001694  00000-0 -88344-4 0  9996","TIME_SYSTEM":"UTC","BSTAR":"-0.00008834400000","FILE":"3914693","REV_AT_EPOCH":"3268","EPOCH":"2023-05-22T13:55:33.614688"},{"MEAN_ELEMENT_THEORY":"SGP4","MEAN_MOTION_DOT":"0.00000859","COUNTRY_CODE":"US","CLASSIFICATION_TYPE":"U","OBJECT_TYPE":"PAYLOAD","REF_FRAME":"TEME","EPHEMERIS_TYPE":"0","SEMIMAJOR_AXIS":"6917.852","PERIOD":"95.437","RA_OF_ASC_NODE":"242.1214","OBJECT_ID":"2022-136AT","CENTER_NAME":"EARTH","PERIAPSIS":"538.692","MEAN_MOTION":"15.08849132","ECCENTRICITY":"0.00014820","GP_ID":"232360537","MEAN_ANOMALY":"248.3664","RCS_SIZE":"LARGE","OBJECT_NAME":"STARLINK-5190","MEAN_MOTION_DDOT":"0.0000000000000","ARG_OF_PERICENTER":"111.7486","SITE":"AFETR","APOAPSIS":"540.743","DECAY_DATE":null,"LAUNCH_DATE":"2022-10-20","ELEMENT_SET_NO":"999","TLE_LINE1":"1 54092U 22136AT  23142.66394911  .00000859  00000-0  72069-4 0  9995","TLE_LINE2":"2 54092  53.2164 242.1214 0001482 111.7486 248.3664 15.08849132 32696","NORAD_CAT_ID":"54092","INCLINATION":"53.2164","TIME_SYSTEM":"UTC","BSTAR":"0.00007206900000","EPOCH":"2023-05-22T15:56:05.203104","REV_AT_EPOCH":"3269","FILE":"3914964"}];
